0 CZ-4 DEB
1 23259U 90081CQ  13281.87280242  .00000715  00000-0  33637-3 0  4181
2 23259 098.7133 306.5810 0019444 231.2772 252.0801 14.22995240149171
0 CZ-4 DEB
1 23259U 90081CQ  13282.92664619  .00000803  00000-0  37529-3 0  4195
2 23259 098.7132 307.6239 0019519 228.1822 250.7408 14.22998872149320
0 CZ-4 DEB
1 23259U 90081CQ  13286.29008367  .00000817  00000-0  38169-3 0  4210
2 23259 098.7122 310.9523 0019739 218.3829 201.0375 14.23004574149807
0 CZ-4 DEB
1 23259U 90081CQ  13288.04702784  .00001224  00000-0  56172-3 0  4227
2 23259 098.7118 312.6909 0019826 213.3649 201.4774 14.23009367150052
0 CZ-4 DEB
1 23259U 90081CQ  13289.54331329  .00000901  00000-0  41864-3 0  4230
2 23259 098.7117 314.1712 0019913 209.1008 306.6329 14.23013565150261
0 CZ-4 DEB
1 23259U 90081CQ  13291.00160547  .00001043  00000-0  48145-3 0  4244
2 23259 098.7116 315.6139 0019987 204.9336 217.1935 14.23015257150468
0 CZ-4 DEB
1 23259U 90081CQ  13292.04828419  .00001034  00000-0  47761-3 0  4252
2 23259 098.7116 316.6494 0020049 201.9360 179.1480 14.23017414150614
0 CZ-4 DEB
1 23259U 90081CQ  13293.55036076  .00001096  00000-0  50496-3 0  4267
2 23259 098.7117 318.1353 0020142 197.7270 313.9466 14.23020761150837
0 CZ-4 DEB
1 23259U 90081CQ  13295.29020954  .00001118  00000-0  51457-3 0  4272
2 23259 098.7118 319.8565 0020231 192.9029 226.7684 14.23024613151079
